CZ-2C R/B               
1 54039U 22132E   26039.00221785  .00040392  00000+0  50959-3 0  9994
2 54039  97.2964  41.4823 0018158 192.1721 167.9100 15.59283759185741
GSLV R/B                
1 54149U 22138AN  26038.90084438  .00003902  00000+0  33961-3 0  9992
2 54149  87.3862 176.3301 0019333 258.7387 101.1672 14.96544176179472
XRISM                   
1 57800U 23137A   26038.65592400  .00008135  00000+0  46756-3 0  9993
2 57800  31.0017 117.8608 0008060  99.0719 261.0832 15.11125713133246
ACS3                    
1 59588U 24077B   26038.89015249  .00017810  00000+0  14733-1 0  9997
2 59588  97.2230 346.7011 0045468 170.1896 190.0165 13.88366305 90061
SZ-21 MODULE            
1 66515U 25246C   26038.99898822  .00035031  00000+0  33069-3 0  9991
2 66515  41.4767  25.8100 0002896 282.8703  77.1814 15.66300370 13413
